STARLINK-5896           
1 55930U 23037S   26068.97044945  .00005328  00000+0  45395-3 0  9997
2 55930  70.0007 283.6953 0002675 261.1258  98.9598 14.98332887164023
CURIUM ONE              
1 60242U 24128H   26068.68697111  .00012574  00000+0  74107-3 0  9992
2 60242  61.9790 197.7537 0050890 110.7183 249.9377 15.10847276 91417
